[{"OBJECT_NAME":"KUIPER-00087","OBJECT_ID":"2025-151T","EPOCH":"2026-03-09T21:11:23.913888","MEAN_MOTION":14.79928134,"ECCENTRICITY":4.769e-5,"INCLINATION":51.8991,"RA_OF_ASC_NODE":279.7259,"ARG_OF_PERICENTER":48.0062,"MEAN_ANOMALY":312.094,"EPHEMERIS_TYPE":0,"CLASSIFICATION_TYPE":"U","NORAD_CAT_ID":64833,"ELEMENT_SET_NO":999,"REV_AT_EPOCH":3560,"BSTAR":-4.0476451e-5,"MEAN_MOTION_DOT":-5.3e-6,"MEAN_MOTION_DDOT":0},{"OBJECT_NAME":"ORBCOMM FM37","OBJECT_ID":"2008-031E","EPOCH":"2026-03-09T16:34:30.287712","MEAN_MOTION":14.81013977,"ECCENTRICITY":0.00042656,"INCLINATION":48.4377,"RA_OF_ASC_NODE":160.2726,"ARG_OF_PERICENTER":77.0893,"MEAN_ANOMALY":42.6651,"EPHEMERIS_TYPE":0,"CLASSIFICATION_TYPE":"U","NORAD_CAT_ID":33064,"ELEMENT_SET_NO":999,"REV_AT_EPOCH":95338,"BSTAR":0.00026246399,"MEAN_MOTION_DOT":1.842e-5,"MEAN_MOTION_DDOT":0}]
